{
  "norad_id": 61600,
  "name": "ONEWEB-0692",
  "history": [
    {
      "epoch": "2026-03-28T21:01:00.522336Z",
      "apogee_km": 1219.6191895783795,
      "perigee_km": 1215.75139686667,
      "latitude_deg": 2.8586795694566365e-06,
      "longitude_deg": -104.49154200091331,
      "height_km": 1219.8259090816898,
      "semi_major_axis_km": 7595.822293222524,
      "eccentricity": 0.0002546,
      "inclination_deg": 87.8892,
      "raan_deg": 37.0505,
      "arg_perigee_deg": 67.3596,
      "mean_anomaly_deg": 292.7801,
      "mean_motion_rev_day": 13.11416273
    },
    {
      "epoch": "2026-03-30T02:18:53.388864Z",
      "apogee_km": 1219.5948160707994,
      "perigee_km": 1215.783230572296,
      "latitude_deg": -9.613761073623985e-06,
      "longitude_deg": 174.59225404871347,
      "height_km": 1219.810178018109,
      "semi_major_axis_km": 7595.826023321548,
      "eccentricity": 0.0002509,
      "inclination_deg": 87.8894,
      "raan_deg": 36.8078,
      "arg_perigee_deg": 66.3666,
      "mean_anomaly_deg": 293.7725,
      "mean_motion_rev_day": 13.11415307
    },
    {
      "epoch": "2026-03-30T05:58:37.530336Z",
      "apogee_km": 1219.5886390093938,
      "perigee_km": 1215.7914850610823,
      "latitude_deg": 1.6225830247525357e-05,
      "longitude_deg": 119.47762863627956,
      "height_km": 1219.8102077070857,
      "semi_major_axis_km": 7595.827062035238,
      "eccentricity": 0.00024995,
      "inclination_deg": 87.8894,
      "raan_deg": 36.7775,
      "arg_perigee_deg": 66.2375,
      "mean_anomaly_deg": 293.9015,
      "mean_motion_rev_day": 13.11415038
    },
    {
      "epoch": "2026-03-30T09:38:21.616512Z",
      "apogee_km": 1219.5812349721846,
      "perigee_km": 1215.7945643432076,
      "latitude_deg": 4.214293143019753e-06,
      "longitude_deg": 64.36323286676117,
      "height_km": 1219.8078122288118,
      "semi_major_axis_km": 7595.824899657696,
      "eccentricity": 0.00024926,
      "inclination_deg": 87.8893,
      "raan_deg": 36.7472,
      "arg_perigee_deg": 66.1594,
      "mean_anomaly_deg": 293.9795,
      "mean_motion_rev_day": 13.11415598
    }
  ]
}